{
  "type": "FeatureCollection",
  "features": [
    {
      "type": "Feature",
      "properties": {
        "norad_id": 66744,
        "name": "TRANSPORTER-15 CG",
        "group": "last-30-days",
        "lat": 42.107659726366514,
        "lon": -107.10189071938441,
        "alt_km": 511.12963784598196,
        "timestamp": "2025-12-20T11:30:27.105454+00:00",
        "meta_object_name": "TRANSPORTER-15 CG",
        "meta_object_id": "2025-276CG",
        "meta_epoch": "2025-12-20T04:34:22.806336",
        "meta_mean_motion": 15.17308878,
        "meta_eccentricity": 0.00013,
        "meta_inclination": 97.4425,
        "meta_ra_of_asc_node": 65.829,
        "meta_arg_of_pericenter": 264.2083,
        "meta_mean_anomaly": 95.9003,
        "meta_ephemeris_type": 0,
        "meta_classification_type": "U",
        "meta_norad_cat_id": 66744,
        "meta_element_set_no": 999,
        "meta_rev_at_epoch": 325,
        "meta_bstar": 0.0002427,
        "meta_mean_motion_dot": 4.771e-05,
        "meta_mean_motion_ddot": 0,
        "tle_line1": "1 66744U 25276CG  25354.19054174  .00004771  00000+0  24270-3 0  9995",
        "tle_line2": "2 66744  97.4425  65.8290 0001300 264.2083  95.9003 15.17308878  3253"
      },
      "geometry": {
        "type": "Point",
        "coordinates": [
          -107.10189071938441,
          42.107659726366514
        ]
      }
    },
    {
      "type": "Feature",
      "properties": {
        "norad_id": 66745,
        "name": "TRANSPORTER-15 CH",
        "group": "last-30-days",
        "lat": 34.68401018801702,
        "lon": -108.69914575393085,
        "alt_km": 511.42647228102123,
        "timestamp": "2025-12-20T11:30:27.105464+00:00",
        "meta_object_name": "TRANSPORTER-15 CH",
        "meta_object_id": "2025-276CH",
        "meta_epoch": "2025-12-18T03:28:42.797856",
        "meta_mean_motion": 15.17410402,
        "meta_eccentricity": 8.886e-05,
        "meta_inclination": 97.4425,
        "meta_ra_of_asc_node": 63.8169,
        "meta_arg_of_pericenter": 243.2573,
        "meta_mean_anomaly": 116.857,
        "meta_ephemeris_type": 0,
        "meta_classification_type": "U",
        "meta_norad_cat_id": 66745,
        "meta_element_set_no": 999,
        "meta_rev_at_epoch": 294,
        "meta_bstar": 0.00015034976,
        "meta_mean_motion_dot": 2.939e-05,
        "meta_mean_motion_ddot": 0,
        "tle_line1": "1 66745U 25276CH  25352.14493979  .00002939  00000+0  15035-3 0  9992",
        "tle_line2": "2 66745  97.4425  63.8169 0000888 243.2573 116.8570 15.17410402  2942"
      },
      "geometry": {
        "type": "Point",
        "coordinates": [
          -108.69914575393085,
          34.68401018801702
        ]
      }
    },
    {
      "type": "Feature",
      "properties": {
        "norad_id": 66746,
        "name": "TRANSPORTER-15 CJ",
        "group": "last-30-days",
        "lat": 34.68460073547877,
        "lon": -108.69934211404738,
        "alt_km": 511.3653278671436,
        "timestamp": "2025-12-20T11:30:27.105476+00:00",
        "meta_object_name": "TRANSPORTER-15 CJ",
        "meta_object_id": "2025-276CJ",
        "meta_epoch": "2025-12-19T04:48:03.204576",
        "meta_mean_motion": 15.17416472,
        "meta_eccentricity": 9.628e-05,
        "meta_inclination": 97.4422,
        "meta_ra_of_asc_node": 64.8535,
        "meta_arg_of_pericenter": 234.0891,
        "meta_mean_anomaly": 126.0254,
        "meta_ephemeris_type": 0,
        "meta_classification_type": "U",
        "meta_norad_cat_id": 66746,
        "meta_element_set_no": 999,
        "meta_rev_at_epoch": 310,
        "meta_bstar": 0.00013979791,
        "meta_mean_motion_dot": 2.728e-05,
        "meta_mean_motion_ddot": 0,
        "tle_line1": "1 66746U 25276CJ  25353.20003709  .00002728  00000+0  13980-3 0  9992",
        "tle_line2": "2 66746  97.4422  64.8535 0000962 234.0891 126.0254 15.17416472  3106"
      },
      "geometry": {
        "type": "Point",
        "coordinates": [
          -108.69934211404738,
          34.68460073547877
        ]
      }
    },
    {
      "type": "Feature",
      "properties": {
        "norad_id": 66747,
        "name": "TRANSPORTER-15 CK",
        "group": "last-30-days",
        "lat": 27.853522906084315,
        "lon": -109.92467556481557,
        "alt_km": 511.932605144405,
        "timestamp": "2025-12-20T11:30:27.105487+00:00",
        "meta_object_name": "TRANSPORTER-15 CK",
        "meta_object_id": "2025-276CK",
        "meta_epoch": "2025-12-20T04:30:38.219904",
        "meta_mean_motion": 15.17521943,
        "meta_eccentricity": 0.0001125,
        "meta_inclination": 97.4423,
        "meta_ra_of_asc_node": 65.8279,
        "meta_arg_of_pericenter": 221.182,
        "meta_mean_anomaly": 138.9329,
        "meta_ephemeris_type": 0,
        "meta_classification_type": "U",
        "meta_norad_cat_id": 66747,
        "meta_element_set_no": 999,
        "meta_rev_at_epoch": 325,
        "meta_bstar": 0.000252,
        "meta_mean_motion_dot": 4.988e-05,
        "meta_mean_motion_ddot": 0,
        "tle_line1": "1 66747U 25276CK  25354.18794236  .00004988  00000+0  25200-3 0  9991",
        "tle_line2": "2 66747  97.4423  65.8279 0001125 221.1820 138.9329 15.17521943  3256"
      },
      "geometry": {
        "type": "Point",
        "coordinates": [
          -109.92467556481557,
          27.853522906084315
        ]
      }
    },
    {
      "type": "Feature",
      "properties": {
        "norad_id": 66748,
        "name": "TRANSPORTER-15 CL",
        "group": "last-30-days",
        "lat": -11.312497314093171,
        "lon": -115.36913324389651,
        "alt_km": 514.142173779639,
        "timestamp": "2025-12-20T11:30:27.105498+00:00",
        "meta_object_name": "TRANSPORTER-15 CL",
        "meta_object_id": "2025-276CL",
        "meta_epoch": "2025-12-20T04:20:27.828096",
        "meta_mean_motion": 15.18396095,
        "meta_eccentricity": 0.0001829,
        "meta_inclination": 97.4417,
        "meta_ra_of_asc_node": 65.8354,
        "meta_arg_of_pericenter": 233.0535,
        "meta_mean_anomaly": 127.0532,
        "meta_ephemeris_type": 0,
        "meta_classification_type": "U",
        "meta_norad_cat_id": 66748,
        "meta_element_set_no": 999,
        "meta_rev_at_epoch": 325,
        "meta_bstar": 0.00058725,
        "meta_mean_motion_dot": 0.0001202,
        "meta_mean_motion_ddot": 0,
        "tle_line1": "1 66748U 25276CL  25354.18087764  .00012020  00000+0  58725-3 0  9997",
        "tle_line2": "2 66748  97.4417  65.8354 0001829 233.0535 127.0532 15.18396095  3254"
      },
      "geometry": {
        "type": "Point",
        "coordinates": [
          -115.36913324389651,
          -11.312497314093171
        ]
      }
    },
    {
      "type": "Feature",
      "properties": {
        "norad_id": 66749,
        "name": "TRANSPORTER-15 CM",
        "group": "last-30-days",
        "lat": 8.018292220277496,
        "lon": -112.8267579737409,
        "alt_km": 513.3616648652342,
        "timestamp": "2025-12-20T11:30:27.105509+00:00",
        "meta_object_name": "TRANSPORTER-15 CM",
        "meta_object_id": "2025-276CM",
        "meta_epoch": "2025-12-20T04:25:26.970816",
        "meta_mean_motion": 15.17836732,
        "meta_eccentricity": 0.0001613,
        "meta_inclination": 97.4411,
        "meta_ra_of_asc_node": 65.8282,
        "meta_arg_of_pericenter": 199.8853,
        "meta_mean_anomaly": 160.2318,
        "meta_ephemeris_type": 0,
        "meta_classification_type": "U",
        "meta_norad_cat_id": 66749,
        "meta_element_set_no": 999,
        "meta_rev_at_epoch": 325,
        "meta_bstar": 0.00024446,
        "meta_mean_motion_dot": 4.88e-05,
        "meta_mean_motion_ddot": 0,
        "tle_line1": "1 66749U 25276CM  25354.18433994  .00004880  00000+0  24446-3 0  9996",
        "tle_line2": "2 66749  97.4411  65.8282 0001613 199.8853 160.2318 15.17836732  3259"
      },
      "geometry": {
        "type": "Point",
        "coordinates": [
          -112.8267579737409,
          8.018292220277496
        ]
      }
    },
    {
      "type": "Feature",
      "properties": {
        "norad_id": 66750,
        "name": "TRANSPORTER-15 CN",
        "group": "last-30-days",
        "lat": -7.424760096525985,
        "lon": -114.8378354034617,
        "alt_km": 514.7476426194598,
        "timestamp": "2025-12-20T11:30:27.105521+00:00",
        "meta_object_name": "TRANSPORTER-15 CN",
        "meta_object_id": "2025-276CN",
        "meta_epoch": "2025-12-20T04:21:23.936256",
        "meta_mean_motion": 15.18002319,
        "meta_eccentricity": 0.0001893,
        "meta_inclination": 97.4451,
        "meta_ra_of_asc_node": 65.8455,
        "meta_arg_of_pericenter": 157.8879,
        "meta_mean_anomaly": 202.2437,
        "meta_ephemeris_type": 0,
        "meta_classification_type": "U",
        "meta_norad_cat_id": 66750,
        "meta_element_set_no": 999,
        "meta_rev_at_epoch": 325,
        "meta_bstar": 0.00019005,
        "meta_mean_motion_dot": 3.797e-05,
        "meta_mean_motion_ddot": 0,
        "tle_line1": "1 66750U 25276CN  25354.18152704  .00003797  00000+0  19005-3 0  9996",
        "tle_line2": "2 66750  97.4451  65.8455 0001893 157.8879 202.2437 15.18002319  3255"
      },
      "geometry": {
        "type": "Point",
        "coordinates": [
          -114.8378354034617,
          -7.424760096525985
        ]
      }
    }
  ]
}